[{"OBJECT_NAME":"FENGYUN 1C DEB","OBJECT_ID":"1999-025JH","EPOCH":"2026-03-07T09:38:11.588928","MEAN_MOTION":14.14282338,"ECCENTRICITY":0.01499946,"INCLINATION":98.4455,"RA_OF_ASC_NODE":129.1133,"ARG_OF_PERICENTER":333.3898,"MEAN_ANOMALY":37.3398,"EPHEMERIS_TYPE":0,"CLASSIFICATION_TYPE":"U","NORAD_CAT_ID":29935,"ELEMENT_SET_NO":999,"REV_AT_EPOCH":98739,"BSTAR":0.00010355637,"MEAN_MOTION_DOT":1.78e-6,"MEAN_MOTION_DDOT":0},{"OBJECT_NAME":"FENGYUN 1C DEB","OBJECT_ID":"1999-025JJ","EPOCH":"2026-03-07T13:00:11.354112","MEAN_MOTION":14.35407773,"ECCENTRICITY":0.0112747,"INCLINATION":98.658,"RA_OF_ASC_NODE":185.2184,"ARG_OF_PERICENTER":296.7813,"MEAN_ANOMALY":62.1874,"EPHEMERIS_TYPE":0,"CLASSIFICATION_TYPE":"U","NORAD_CAT_ID":29936,"ELEMENT_SET_NO":999,"REV_AT_EPOCH":148,"BSTAR":0.00018755628,"MEAN_MOTION_DOT":5.3e-6,"MEAN_MOTION_DDOT":0},{"OBJECT_NAME":"FENGYUN 1C DEB","OBJECT_ID":"1999-025JK","EPOCH":"2026-03-07T15:12:41.755968","MEAN_MOTION":14.04381323,"ECCENTRICITY":0.00327543,"INCLINATION":98.7972,"RA_OF_ASC_NODE":90.0169,"ARG_OF_PERICENTER":140.6841,"MEAN_ANOMALY":334.4548,"EPHEMERIS_TYPE":0,"CLASSIFICATION_TYPE":"U","NORAD_CAT_ID":29937,"ELEMENT_SET_NO":999,"REV_AT_EPOCH":98127,"BSTAR":3.853469e-6,"MEAN_MOTION_DOT":-3.6e-7,"MEAN_MOTION_DDOT":0},{"OBJECT_NAME":"FENGYUN 1C DEB","OBJECT_ID":"1999-025JL","EPOCH":"2026-03-07T12:49:31.029024","MEAN_MOTION":14.07511405,"ECCENTRICITY":0.00346016,"INCLINATION":98.8114,"RA_OF_ASC_NODE":59.3994,"ARG_OF_PERICENTER":71.4349,"MEAN_ANOMALY":57.0972,"EPHEMERIS_TYPE":0,"CLASSIFICATION_TYPE":"U","NORAD_CAT_ID":29938,"ELEMENT_SET_NO":999,"REV_AT_EPOCH":98249,"BSTAR":0.00012099027,"MEAN_MOTION_DOT":1.62e-6,"MEAN_MOTION_DDOT":0},{"OBJECT_NAME":"FENGYUN 1C DEB","OBJECT_ID":"1999-025JM","EPOCH":"2026-03-07T12:58:54.698304","MEAN_MOTION":14.12108645,"ECCENTRICITY":0.00651624,"INCLINATION":98.7147,"RA_OF_ASC_NODE":68.7312,"ARG_OF_PERICENTER":257.8973,"MEAN_ANOMALY":219.434,"EPHEMERIS_TYPE":0,"CLASSIFICATION_TYPE":"U","NORAD_CAT_ID":29939,"ELEMENT_SET_NO":999,"REV_AT_EPOCH":98657,"BSTAR":7.4377508e-5,"MEAN_MOTION_DOT":9.6e-7,"MEAN_MOTION_DDOT":0},{"OBJECT_NAME":"FENGYUN 1C DEB","OBJECT_ID":"1999-025JN","EPOCH":"2026-03-07T14:17:46.226688","MEAN_MOTION":14.1906593,"ECCENTRICITY":0.00732444,"INCLINATION":98.6214,"RA_OF_ASC_NODE":78.9571,"ARG_OF_PERICENTER":214.4081,"MEAN_ANOMALY":275.4983,"EPHEMERIS_TYPE":0,"CLASSIFICATION_TYPE":"U","NORAD_CAT_ID":29940,"ELEMENT_SET_NO":999,"REV_AT_EPOCH":98691,"BSTAR":0.00060494493,"MEAN_MOTION_DOT":1.255e-5,"MEAN_MOTION_DDOT":0},{"OBJECT_NAME":"FENGYUN 1C DEB","OBJECT_ID":"1999-025JQ","EPOCH":"2026-03-07T04:29:07.134432","MEAN_MOTION":14.30762786,"ECCENTRICITY":0.00491556,"INCLINATION":98.6239,"RA_OF_ASC_NODE":136.3967,"ARG_OF_PERICENTER":30.0966,"MEAN_ANOMALY":330.3025,"EPHEMERIS_TYPE":0,"CLASSIFICATION_TYPE":"U","NORAD_CAT_ID":29942,"ELEMENT_SET_NO":999,"REV_AT_EPOCH":99076,"BSTAR":0.00062615462,"MEAN_MOTION_DOT":1.618e-5,"MEAN_MOTION_DDOT":0},{"OBJECT_NAME":"FENGYUN 1C DEB","OBJECT_ID":"1999-025JR","EPOCH":"2026-03-07T14:52:15.738240","MEAN_MOTION":14.09690868,"ECCENTRICITY":0.0035395,"INCLINATION":98.7278,"RA_OF_ASC_NODE":76.7874,"ARG_OF_PERICENTER":349.6761,"MEAN_ANOMALY":125.1586,"EPHEMERIS_TYPE":0,"CLASSIFICATION_TYPE":"U","NORAD_CAT_ID":29943,"ELEMENT_SET_NO":999,"REV_AT_EPOCH":98502,"BSTAR":0.00011315253,"MEAN_MOTION_DOT":1.57e-6,"MEAN_MOTION_DDOT":0},{"OBJECT_NAME":"FENGYUN 1C DEB","OBJECT_ID":"1999-025JS","EPOCH":"2026-03-07T09:09:46.885824","MEAN_MOTION":14.89754203,"ECCENTRICITY":0.01608477,"INCLINATION":99.0126,"RA_OF_ASC_NODE":16.9844,"ARG_OF_PERICENTER":322.8998,"MEAN_ANOMALY":36.1182,"EPHEMERIS_TYPE":0,"CLASSIFICATION_TYPE":"U","NORAD_CAT_ID":29944,"ELEMENT_SET_NO":999,"REV_AT_EPOCH":1713,"BSTAR":0.0020036716,"MEAN_MOTION_DOT":0.00024522,"MEAN_MOTION_DDOT":0},{"OBJECT_NAME":"FENGYUN 1C DEB","OBJECT_ID":"1999-025JT","EPOCH":"2026-03-07T14:41:27.792672","MEAN_MOTION":14.05609689,"ECCENTRICITY":0.00319256,"INCLINATION":98.7848,"RA_OF_ASC_NODE":92.684,"ARG_OF_PERICENTER":121.5836,"MEAN_ANOMALY":355.1852,"EPHEMERIS_TYPE":0,"CLASSIFICATION_TYPE":"U","NORAD_CAT_ID":29945,"ELEMENT_SET_NO":999,"REV_AT_EPOCH":98170,"BSTAR":6.8569735e-5,"MEAN_MOTION_DOT":7.0e-7,"MEAN_MOTION_DDOT":0},{"OBJECT_NAME":"FENGYUN 1C DEB","OBJECT_ID":"1999-025JU","EPOCH":"2026-03-07T14:07:19.539840","MEAN_MOTION":14.0833549,"ECCENTRICITY":0.00817197,"INCLINATION":98.7881,"RA_OF_ASC_NODE":61.5877,"ARG_OF_PERICENTER":103.29,"MEAN_ANOMALY":20.2209,"EPHEMERIS_TYPE":0,"CLASSIFICATION_TYPE":"U","NORAD_CAT_ID":29946,"ELEMENT_SET_NO":999,"REV_AT_EPOCH":98241,"BSTAR":0.00035642363,"MEAN_MOTION_DOT":5.87e-6,"MEAN_MOTION_DDOT":0},{"OBJECT_NAME":"FENGYUN 1C DEB","OBJECT_ID":"1999-025JV","EPOCH":"2026-03-07T14:52:13.861632","MEAN_MOTION":14.03130525,"ECCENTRICITY":0.00393062,"INCLINATION":98.8263,"RA_OF_ASC_NODE":99.6719,"ARG_OF_PERICENTER":243.2787,"MEAN_ANOMALY":233.3627,"EPHEMERIS_TYPE":0,"CLASSIFICATION_TYPE":"U","NORAD_CAT_ID":29947,"ELEMENT_SET_NO":999,"REV_AT_EPOCH":97940,"BSTAR":0.00034785834,"MEAN_MOTION_DOT":5.02e-6,"MEAN_MOTION_DDOT":0},{"OBJECT_NAME":"FENGYUN 1C DEB","OBJECT_ID":"1999-025JW","EPOCH":"2026-03-07T12:44:14.288352","MEAN_MOTION":14.06241184,"ECCENTRICITY":0.0084516,"INCLINATION":98.8347,"RA_OF_ASC_NODE":55.6036,"ARG_OF_PERICENTER":356.7581,"MEAN_ANOMALY":126.2263,"EPHEMERIS_TYPE":0,"CLASSIFICATION_TYPE":"U","NORAD_CAT_ID":29948,"ELEMENT_SET_NO":999,"REV_AT_EPOCH":98168,"BSTAR":0.00016464341,"MEAN_MOTION_DOT":2.37e-6,"MEAN_MOTION_DDOT":0},{"OBJECT_NAME":"FENGYUN 1C DEB","OBJECT_ID":"1999-025JX","EPOCH":"2026-03-07T15:29:46.067712","MEAN_MOTION":14.06843407,"ECCENTRICITY":0.00250466,"INCLINATION":98.7592,"RA_OF_ASC_NODE":84.6676,"ARG_OF_PERICENTER":66.249,"MEAN_ANOMALY":60.2592,"EPHEMERIS_TYPE":0,"CLASSIFICATION_TYPE":"U","NORAD_CAT_ID":29949,"ELEMENT_SET_NO":999,"REV_AT_EPOCH":98301,"BSTAR":0.00016529117,"MEAN_MOTION_DOT":2.34e-6,"MEAN_MOTION_DDOT":0},{"OBJECT_NAME":"FENGYUN 1C DEB","OBJECT_ID":"1999-025JY","EPOCH":"2026-03-07T14:35:39.661152","MEAN_MOTION":14.10377296,"ECCENTRICITY":0.00330775,"INCLINATION":98.7307,"RA_OF_ASC_NODE":100.2778,"ARG_OF_PERICENTER":4.5219,"MEAN_ANOMALY":121.5704,"EPHEMERIS_TYPE":0,"CLASSIFICATION_TYPE":"U","NORAD_CAT_ID":29950,"ELEMENT_SET_NO":999,"REV_AT_EPOCH":98487,"BSTAR":0.00017460756,"MEAN_MOTION_DOT":2.69e-6,"MEAN_MOTION_DDOT":0},{"OBJECT_NAME":"FENGYUN 1C DEB","OBJECT_ID":"1999-025KB","EPOCH":"2026-03-07T09:53:35.636928","MEAN_MOTION":13.90931479,"ECCENTRICITY":0.01072625,"INCLINATION":98.9479,"RA_OF_ASC_NODE":55.1792,"ARG_OF_PERICENTER":35.8973,"MEAN_ANOMALY":120.6223,"EPHEMERIS_TYPE":0,"CLASSIFICATION_TYPE":"U","NORAD_CAT_ID":29953,"ELEMENT_SET_NO":999,"REV_AT_EPOCH":97039,"BSTAR":0.00052631847,"MEAN_MOTION_DOT":6.49e-6,"MEAN_MOTION_DDOT":0}]
