FENGYUN 1C DEB          
1 29935U 99025JH  26066.40152302  .00000178  00000+0  10356-3 0  9993
2 29935  98.4455 129.1133 0149994 333.3898  37.3398 14.14282338987393
FENGYUN 1C DEB          
1 29936U 99025JJ  26066.54179808  .00000530  00000+0  18756-3 0  9993
2 29936  98.6580 185.2184 0112747 296.7813  62.1874 14.35407773  1486
FENGYUN 1C DEB          
1 29937U 99025JK  26066.63381662 -.00000036  00000+0  38535-5 0  9998
2 29937  98.7972  90.0169 0032754 140.6841 334.4548 14.04381323981271
FENGYUN 1C DEB          
1 29938U 99025JL  26066.53438691  .00000162  00000+0  12099-3 0  9997
2 29938  98.8114  59.3994 0034601  71.4349  57.0972 14.07511405982495
FENGYUN 1C DEB          
1 29939U 99025JM  26066.54091086  .00000096  00000+0  74378-4 0  9997
2 29939  98.7147  68.7312 0065162 257.8973 219.4340 14.12108645986578
FENGYUN 1C DEB          
1 29940U 99025JN  26066.59567392  .00001255  00000+0  60494-3 0  9993
2 29940  98.6214  78.9571 0073244 214.4081 275.4983 14.19065930986912
FENGYUN 1C DEB          
1 29942U 99025JQ  26066.18688813  .00001618  00000+0  62615-3 0  9992
2 29942  98.6239 136.3967 0049155  30.0966 330.3025 14.30762786990769
FENGYUN 1C DEB          
1 29943U 99025JR  26066.61962660  .00000157  00000+0  11315-3 0  9994
2 29943  98.7278  76.7874 0035395 349.6761 125.1586 14.09690868985023
FENGYUN 1C DEB          
1 29944U 99025JS  26066.38179266  .00024522  00000+0  20037-2 0  9993
2 29944  99.0126  16.9844 0160847 322.8998  36.1182 14.89754203 17132
FENGYUN 1C DEB          
1 29945U 99025JT  26066.61212723  .00000070  00000+0  68570-4 0  9994
2 29945  98.7848  92.6840 0031925 121.5836 355.1852 14.05609689981702
FENGYUN 1C DEB          
1 29946U 99025JU  26066.58842060  .00000587  00000+0  35642-3 0  9990
2 29946  98.7881  61.5877 0081719 103.2900  20.2209 14.08335490982414
FENGYUN 1C DEB          
1 29947U 99025JV  26066.61960488  .00000502  00000+0  34786-3 0  9995
2 29947  98.8263  99.6719 0039306 243.2787 233.3627 14.03130525979403
FENGYUN 1C DEB          
1 29948U 99025JW  26066.53072093  .00000237  00000+0  16464-3 0  9991
2 29948  98.8347  55.6036 0084516 356.7581 126.2263 14.06241184981682
FENGYUN 1C DEB          
1 29949U 99025JX  26066.64567208  .00000234  00000+0  16529-3 0  9990
2 29949  98.7592  84.6676 0025046  66.2490  60.2592 14.06843407983018
FENGYUN 1C DEB          
1 29950U 99025JY  26066.60809793  .00000269  00000+0  17461-3 0  9990
2 29950  98.7307 100.2778 0033077   4.5219 121.5704 14.10377296984873
FENGYUN 1C DEB          
1 29953U 99025KB  26066.41221802  .00000649  00000+0  52632-3 0  9992
2 29953  98.9479  55.1792 0107262  35.8973 120.6223 13.90931479970398
